ONEWEB-0156             
1 48052U 21025L   25303.21417112 -.00000292  00000+0 -83419-3 0  9993
2 48052  87.9040   5.9136 0001844  94.8911 265.2429 13.13472319223384
ONEWEB-0161             
1 48053U 21025M   25303.18878714  .00000044  00000+0  85353-4 0  9992
2 48053  87.9036   5.9368 0001923  94.5708 265.5641 13.13470800223311
ONEWEB-0158             
1 48054U 21025N   25303.22433187 -.00000029  00000+0 -11398-3 0  9991
2 48054  87.9038   5.9112 0001829 109.8157 250.3169 13.13472176223443
ONEWEB-0157             
1 48055U 21025P   25303.24973500  .00000424  00000+0  11265-2 0  9991
2 48055  87.9039   5.9130 0002157  91.6586 268.4791 13.13470319223385
ONEWEB-0162             
1 48056U 21025Q   25303.22589123  .00000055  00000+0  11654-3 0  9997
2 48056  87.9040   5.9185 0001766  95.0432 265.0899 13.13469311223350
ONEWEB-0155             
1 48057U 21025R   25303.23280347  .00000170  00000+0  42983-3 0  9992
2 48057  87.9037   5.9230 0002029  99.9666 260.1692 13.13468843223494
ONEWEB-0149             
1 48058U 21025S   25303.25480126  .00000326  00000+0  85906-3 0  9997
2 48058  87.9040   5.9129 0001685  94.8341 265.2981 13.13470927223300
ONEWEB-0148             
1 48059U 21025T   25303.21756439 -.00000282  00000+0 -80750-3 0  9992
2 48059  87.9028   5.9424 0001635  80.0228 280.1085 13.13470370223427
ONEWEB-0160             
1 48060U 21025U   25303.23447941  .00000249  00000+0  64660-3 0  9994
2 48060  87.9030   5.9363 0001578 125.6013 234.5263 13.13472974223375
ONEWEB-0163             
1 48061U 21025V   25303.21925552 -.00000177  00000+0 -52059-3 0  9993
2 48061  87.9038   5.9225 0002115  94.5854 265.5517 13.13469837223499
ONEWEB-0159             
1 48062U 21025W   25303.21077841 -.00000449  00000+0 -12635-2 0  9990
2 48062  87.9040   5.9074 0001965  92.6727 267.4627 13.13469296223419
ONEWEB-0164             
1 48063U 21025X   25303.19215856 -.00000017  00000+0 -81621-4 0  9992
2 48063  87.9040   5.9191 0001835 102.4349 257.6986 13.13471844223394
ONEWEB-0167             
1 48064U 21025Y   25303.22010262 -.00000156  00000+0 -46143-3 0  9994
2 48064  87.9030   5.9443 0002584 100.8823 259.2598 13.13469828223380
ONEWEB-0166             
1 48065U 21025Z   25303.24295516  .00000243  00000+0  62989-3 0  9995
2 48065  87.9038   5.8929 0001780  93.6974 266.4359 13.13468656223462
ONEWEB-0151             
1 48066U 21025AA  25303.24464305  .00000316  00000+0  83081-3 0  9997
2 48066  87.9038   5.9182 0001993 101.7558 258.3795 13.13471608223409
ONEWEB-0170             
1 48067U 21025AB  25303.25311130  .00000325  00000+0  85510-3 0  9995
2 48067  87.9040   5.9236 0002016 113.0235 247.1107 13.13468480223360
ONEWEB-0168             
1 48068U 21025AC  25303.23787897  .00000255  00000+0  66306-3 0  9995
2 48068  87.9041   5.9086 0001980  94.6073 265.5282 13.13469483223371
ONEWEB-0173             
1 48069U 21025AD  25303.22940320  .00000026  00000+0  35871-4 0  9997
2 48069  87.9040   5.9180 0002245  94.3818 265.7568 13.13472114223616
ONEWEB-0171             
1 48070U 21025AE  25303.19047999  .00000071  00000+0  15823-3 0  9999
2 48070  87.9025   5.9558 0001945 101.5378 258.5970 13.13470531223425
ONEWEB-0172             
1 48071U 21025AF  25303.24634214  .00000357  00000+0  94300-3 0  9992
2 48071  87.9040   5.9193 0002013  99.4122 260.7235 13.13468467224321
ONEWEB-0174             
1 48072U 21025AG  25303.22772063  .00000105  00000+0  25183-3 0  9990
2 48072  87.9031   5.9312 0001819  94.5159 265.6178 13.13469836223649
ONEWEB-0175             
1 48073U 21025AH  25303.25819060  .00000198  00000+0  50654-3 0  9996
2 48073  87.9039   5.8921 0002103 106.6119 253.5241 13.13470827223303
ONEWEB-0177             
1 48074U 21025AJ  25303.19385138 -.00000094  00000+0 -29351-3 0  9991
2 48074  87.9041   5.9231 0001891  94.5241 265.6105 13.13471695223482
ONEWEB-0178             
1 48075U 21025AK  25303.21262206 -.00000224  00000+0 -64887-3 0  9993
2 48075  87.9035   5.9649 0002141  99.4059 260.7312 13.13469919223537
ONEWEB-0108             
1 48076U 21025AL  25303.24802723  .00000414  00000+0  10994-2 0  9999
2 48076  87.9037   5.9031 0001581  99.8221 260.3087 13.13471437223462
ONEWEB-0169             
1 48077U 21025AM  25303.20401614 -.00000284  00000+0 -81369-3 0  9992
2 48077  87.9032   5.9342 0001616  99.1993 260.9319 13.13469384222114
ONEWEB-0176             
1 48210U 21031A   25303.15104669  .00000277  00000+0  71265-3 0  9996
2 48210  87.9026 335.5301 0002167  99.4752 260.6623 13.14496211218098
ONEWEB-0184             
1 48211U 21031B   25303.12408513 -.00000227  00000+0 -64572-3 0  9999
2 48211  87.9023 335.5096 0002643 106.1652 253.9769 13.14501986218060
ONEWEB-0179             
1 48212U 21031C   25303.17086912  .00000244  00000+0  62338-3 0  9995
2 48212  87.9016 335.5121 0001860  92.0618 268.0725 13.14502563218114
ONEWEB-0180             
1 48213U 21031D   25303.12725320 -.00000175  00000+0 -50630-3 0  9991
2 48213  87.9025 335.5153 0002155  90.8174 269.3202 13.14504091217998
ONEWEB-0218             
1 48214U 21031E   25303.14946639  .00000110  00000+0  26340-3 0  9990
2 48214  87.9021 335.5114 0002790 100.9366 259.2078 13.14503192218152
ONEWEB-0209             
1 48215U 21031F   25303.13835628  .00000007  00000+0 -14576-4 0  9990
2 48215  87.9011 335.5543 0002010  89.4870 270.6490 13.14504146218159
ONEWEB-0198             
1 48216U 21031G   25303.12262426 -.00000224  00000+0 -63843-3 0  9992
2 48216  87.9013 335.5550 0002325  91.7565 268.3831 13.14501155218268
ONEWEB-0189             
1 48217U 21031H   25303.13517189 -.00000251  00000+0 -71262-3 0  9997
2 48217  87.9011 335.5257 0002258  92.7909 267.3480 13.14503887218004
ONEWEB-0196             
1 48218U 21031J   25303.11297271 -.00000227  00000+0 -64810-3 0  9997
2 48218  87.9013 335.5454 0001961  92.5567 267.5788 13.14503989218000
ONEWEB-0183             
1 48219U 21031K   25303.08761684  .00000505  00000+0  13285-2 0  9994
2 48219  87.9004 335.5575 0001487  83.9914 276.1386 13.14502498218091
ONEWEB-0185             
1 48220U 21031L   25303.11377972 -.00000101  00000+0 -30712-3 0  9992
2 48220  87.9016 335.5222 0001904  84.5646 275.5700 13.14501790218028
ONEWEB-0187             
1 48221U 21031M   25303.16992397  .00000207  00000+0  52341-3 0  9999
2 48221  87.9009 335.5567 0002006  88.6706 271.4653 13.14505270218040
ONEWEB-0192             
1 48222U 21031N   25303.13994618 -.00000008  00000+0 -56272-4 0  9994
2 48222  87.9005 335.5544 0001952  95.5257 264.6096 13.14503372217954
ONEWEB-0219             
1 48223U 21031P   25303.11932166 -.00000168  00000+0 -48642-3 0  9991
2 48223  87.9016 335.5331 0001912  87.2938 272.8411 13.14504215218153
ONEWEB-0202             
1 48224U 21031Q   25303.17643319  .00000037  00000+0  64038-4 0  9998
2 48224  87.9011 335.5352 0002620  96.0286 264.1143 13.14502676218147
ONEWEB-0204             
1 48225U 21031R   25303.13437950 -.00000069  00000+0 -21935-3 0  9992
2 48225  87.9008 335.5316 0001579  90.7232 269.4079 13.14504384218030
ONEWEB-0205             
1 48226U 21031S   25303.10980771 -.00000145  00000+0 -42520-3 0  9992
2 48226  87.9014 335.5299 0001925  89.6738 270.4613 13.14504108218042
ONEWEB-0206             
1 48227U 21031T   25303.15895720  .00000145  00000+0  35784-3 0  9999
2 48227  87.9024 335.5066 0001836 104.7030 255.4303 13.14504745218003
ONEWEB-0182             
1 48228U 21031U   25303.15422265  .00000183  00000+0  45843-3 0  9999
2 48228  87.9003 335.5444 0001649  91.0262 269.1057 13.14503715218215
ONEWEB-0186             
1 48229U 21031V   25303.16532491  .00000206  00000+0  52072-3 0  9992
2 48229  87.9024 335.5117 0001544  76.7590 283.3712 13.14503161218169
ONEWEB-0181             
1 48230U 21031W   25303.14311463  .00000063  00000+0  13480-3 0  9997
2 48230  87.9001 335.5777 0002054  94.2199 265.9165 13.14504240218016
ONEWEB-0188             
1 48231U 21031X   25303.10504761  .00000055  00000+0  11345-3 0  9998
2 48231  87.9007 335.5810 0001840  93.6056 266.5284 13.14500821217916
ONEWEB-0220             
1 48232U 21031Y   25303.14469882  .00000076  00000+0  16958-3 0  9995
2 48232  87.9017 335.5157 0001913  87.7233 272.4116 13.14501571218187
ONEWEB-0165             
1 48233U 21031Z   25303.17324699  .00000150  00000+0  36991-3 0  9997
2 48233  87.9006 335.5432 0001998  91.3992 268.7367 13.14503609218144
ONEWEB-0199             
1 48234U 21031AA  25303.15738470  .00000252  00000+0  64400-3 0  9991
2 48234  87.9013 335.5166 0001814 101.4214 258.7119 13.14501405218049
ONEWEB-0203             
1 48235U 21031AB  25303.14786973  .00000138  00000+0  33843-3 0  9992
2 48235  87.9011 335.5199 0002043 101.7161 258.4199 13.14503709218058
ONEWEB-0197             
1 48236U 21031AC  25303.12234879 -.00000475  00000+0 -13164-2 0  9993
2 48236  87.9012 335.5231 0001595  88.0252 272.1061 13.14502435217961
ONEWEB-0194             
1 48237U 21031AD  25303.17800361  .00000076  00000+0  17097-3 0  9999
2 48237  87.9018 335.5286 0001844 103.4473 256.6862 13.14503297218146
ONEWEB-0193             
1 48238U 21031AE  25303.11773158 -.00006318  00000+0 -17081-1 0  9995
2 48238  87.9011 335.5368 0001561 101.5705 258.5600 13.14533147218085
ONEWEB-0191             
1 48239U 21031AF  25303.12882692 -.00000184  00000+0 -53133-3 0  9996
2 48239  87.9025 335.5201 0001843  96.2077 263.9263 13.14500988217948
ONEWEB-0195             
1 48240U 21031AG  25303.10585736 -.00000062  00000+0 -20092-3 0  9998
2 48240  87.9022 335.5204 0002255  92.3359 267.8029 13.14502430217923
ONEWEB-0201             
1 48241U 21031AH  25303.17021240  .00000147  00000+0  36204-3 0  9995
2 48241  87.9013 335.5542 0001945  85.8843 274.2509 13.14503812218166
ONEWEB-0207             
1 48242U 21031AJ  25303.15024786  .00000124  00000+0  29956-3 0  9993
2 48242  87.9012 335.5151 0001753  89.3127 270.8204 13.14503866218076
